{
  "type": "FeatureCollection",
  "features": [
    {
      "type": "Feature",
      "properties": {
        "norad_id": 64751,
        "name": "PROGRESS-MS 31",
        "group": "stations",
        "lat": 38.88383752146022,
        "lon": 165.24157577638798,
        "alt_km": 414.63365239419636,
        "timestamp": "2025-12-16T03:53:25.836382+00:00",
        "meta_object_name": "PROGRESS-MS 31",
        "meta_object_id": "2025-146A",
        "meta_epoch": "2025-12-15T05:59:35.690496",
        "meta_mean_motion": 15.49601155,
        "meta_eccentricity": 0.00031934,
        "meta_inclination": 51.6306,
        "meta_ra_of_asc_node": 130.0501,
        "meta_arg_of_pericenter": 251.9008,
        "meta_mean_anomaly": 108.1633,
        "meta_ephemeris_type": 0,
        "meta_classification_type": "U",
        "meta_norad_cat_id": 64751,
        "meta_element_set_no": 999,
        "meta_rev_at_epoch": 675,
        "meta_bstar": 0.00013467464,
        "meta_mean_motion_dot": 7.132e-05,
        "meta_mean_motion_ddot": 0,
        "tle_line1": "1 64751U 25146A   25349.24971864  .00007132  00000+0  13467-3 0  9991",
        "tle_line2": "2 64751  51.6306 130.0501 0003193 251.9008 108.1633 15.49601155  6754"
      },
      "geometry": {
        "type": "Point",
        "coordinates": [
          165.24157577638798,
          38.88383752146022
        ]
      }
    },
    {
      "type": "Feature",
      "properties": {
        "norad_id": 64786,
        "name": "TIANZHOU-9",
        "group": "stations",
        "lat": -36.22158329476509,
        "lon": -60.11172210908909,
        "alt_km": 395.3438388311015,
        "timestamp": "2025-12-16T03:53:25.836393+00:00",
        "meta_object_name": "TIANZHOU-9",
        "meta_object_id": "2025-149A",
        "meta_epoch": "2025-12-15T08:10:40.084608",
        "meta_mean_motion": 15.592964,
        "meta_eccentricity": 0.0007961,
        "meta_inclination": 41.4685,
        "meta_ra_of_asc_node": 0.9167,
        "meta_arg_of_pericenter": 52.8673,
        "meta_mean_anomaly": 307.2892,
        "meta_ephemeris_type": 0,
        "meta_classification_type": "U",
        "meta_norad_cat_id": 64786,
        "meta_element_set_no": 999,
        "meta_rev_at_epoch": 25530,
        "meta_bstar": 0.00021537809,
        "meta_mean_motion_dot": 0.00017163,
        "meta_mean_motion_ddot": 0,
        "tle_line1": "1 64786U 25149A   25349.34074172  .00017163  00000+0  21538-3 0  9992",
        "tle_line2": "2 64786  41.4685   0.9167 0007961  52.8673 307.2892 15.59296400255305"
      },
      "geometry": {
        "type": "Point",
        "coordinates": [
          -60.11172210908909,
          -36.22158329476509
        ]
      }
    },
    {
      "type": "Feature",
      "properties": {
        "norad_id": 65077,
        "name": "CREW DRAGON 11",
        "group": "stations",
        "lat": 38.88383834017445,
        "lon": 165.24157716676683,
        "alt_km": 414.633652285057,
        "timestamp": "2025-12-16T03:53:25.836403+00:00",
        "meta_object_name": "CREW DRAGON 11",
        "meta_object_id": "2025-166A",
        "meta_epoch": "2025-12-15T05:59:35.690496",
        "meta_mean_motion": 15.49601155,
        "meta_eccentricity": 0.00031934,
        "meta_inclination": 51.6306,
        "meta_ra_of_asc_node": 130.0501,
        "meta_arg_of_pericenter": 251.9008,
        "meta_mean_anomaly": 108.1633,
        "meta_ephemeris_type": 0,
        "meta_classification_type": "U",
        "meta_norad_cat_id": 65077,
        "meta_element_set_no": 999,
        "meta_rev_at_epoch": 214,
        "meta_bstar": 0.00013467464,
        "meta_mean_motion_dot": 7.132e-05,
        "meta_mean_motion_ddot": 0,
        "tle_line1": "1 65077U 25166A   25349.24971864  .00007132  00000+0  13467-3 0  9995",
        "tle_line2": "2 65077  51.6306 130.0501 0003193 251.9008 108.1633 15.49601155  2145"
      },
      "geometry": {
        "type": "Point",
        "coordinates": [
          165.24157716676683,
          38.88383834017445
        ]
      }
    },
    {
      "type": "Feature",
      "properties": {
        "norad_id": 65304,
        "name": "DRAGON CRS-33",
        "group": "stations",
        "lat": 38.883838730038924,
        "lon": 165.24157782885302,
        "alt_km": 414.63365223308483,
        "timestamp": "2025-12-16T03:53:25.836413+00:00",
        "meta_object_name": "DRAGON CRS-33",
        "meta_object_id": "2025-186A",
        "meta_epoch": "2025-12-15T05:59:35.690496",
        "meta_mean_motion": 15.49601155,
        "meta_eccentricity": 0.00031934,
        "meta_inclination": 51.6306,
        "meta_ra_of_asc_node": 130.0501,
        "meta_arg_of_pericenter": 251.9008,
        "meta_mean_anomaly": 108.1633,
        "meta_ephemeris_type": 0,
        "meta_classification_type": "U",
        "meta_norad_cat_id": 65304,
        "meta_element_set_no": 999,
        "meta_rev_at_epoch": 11,
        "meta_bstar": 0.00013467464,
        "meta_mean_motion_dot": 7.132e-05,
        "meta_mean_motion_ddot": 0,
        "tle_line1": "1 65304U 25186A   25349.24971864  .00007132  00000+0  13467-3 0  9990",
        "tle_line2": "2 65304  51.6306 130.0501 0003193 251.9008 108.1633 15.49601155   113"
      },
      "geometry": {
        "type": "Point",
        "coordinates": [
          165.24157782885302,
          38.883838730038924
        ]
      }
    },
    {
      "type": "Feature",
      "properties": {
        "norad_id": 65586,
        "name": "PROGRESS-MS 32",
        "group": "stations",
        "lat": 38.88383911990295,
        "lon": 165.24157849093837,
        "alt_km": 414.6336521811136,
        "timestamp": "2025-12-16T03:53:25.836423+00:00",
        "meta_object_name": "PROGRESS-MS 32",
        "meta_object_id": "2025-204A",
        "meta_epoch": "2025-12-15T05:59:35.690496",
        "meta_mean_motion": 15.49601155,
        "meta_eccentricity": 0.00031934,
        "meta_inclination": 51.6306,
        "meta_ra_of_asc_node": 130.0501,
        "meta_arg_of_pericenter": 251.9008,
        "meta_mean_anomaly": 108.1633,
        "meta_ephemeris_type": 0,
        "meta_classification_type": "U",
        "meta_norad_cat_id": 65586,
        "meta_element_set_no": 999,
        "meta_rev_at_epoch": 27,
        "meta_bstar": 0.00013467464,
        "meta_mean_motion_dot": 7.132e-05,
        "meta_mean_motion_ddot": 0,
        "tle_line1": "1 65586U 25204A   25349.24971864  .00007132  00000+0  13467-3 0  9993",
        "tle_line2": "2 65586  51.6306 130.0501 0003193 251.9008 108.1633 15.49601155   272"
      },
      "geometry": {
        "type": "Point",
        "coordinates": [
          165.24157849093837,
          38.88383911990295
        ]
      }
    },
    {
      "type": "Feature",
      "properties": {
        "norad_id": 65616,
        "name": "CYGNUS NG-23",
        "group": "stations",
        "lat": 38.883839509766936,
        "lon": 165.24157915302374,
        "alt_km": 414.6336521291414,
        "timestamp": "2025-12-16T03:53:25.836433+00:00",
        "meta_object_name": "CYGNUS NG-23",
        "meta_object_id": "2025-208A",
        "meta_epoch": "2025-12-15T05:59:35.690496",
        "meta_mean_motion": 15.49601155,
        "meta_eccentricity": 0.00031934,
        "meta_inclination": 51.6306,
        "meta_ra_of_asc_node": 130.0501,
        "meta_arg_of_pericenter": 251.9008,
        "meta_mean_anomaly": 108.1633,
        "meta_ephemeris_type": 0,
        "meta_classification_type": "U",
        "meta_norad_cat_id": 65616,
        "meta_element_set_no": 999,
        "meta_rev_at_epoch": 22,
        "meta_bstar": 0.00013467464,
        "meta_mean_motion_dot": 7.132e-05,
        "meta_mean_motion_ddot": 0,
        "tle_line1": "1 65616U 25208A   25349.24971864  .00007132  00000+0  13467-3 0  9991",
        "tle_line2": "2 65616  51.6306 130.0501 0003193 251.9008 108.1633 15.49601155   221"
      },
      "geometry": {
        "type": "Point",
        "coordinates": [
          165.24157915302374,
          38.883839509766936
        ]
      }
    },
    {
      "type": "Feature",
      "properties": {
        "norad_id": 65729,
        "name": "DRAGONFLY",
        "group": "stations",
        "lat": -33.87335260721369,
        "lon": 86.07892150739515,
        "alt_km": 349.52879501455755,
        "timestamp": "2025-12-16T03:53:25.836443+00:00",
        "meta_object_name": "DRAGONFLY",
        "meta_object_id": "1998-067XH",
        "meta_epoch": "2025-12-14T18:32:10.159584",
        "meta_mean_motion": 15.72674024,
        "meta_eccentricity": 0.00069619,
        "meta_inclination": 51.6244,
        "meta_ra_of_asc_node": 125.3489,
        "meta_arg_of_pericenter": 292.1448,
        "meta_mean_anomaly": 67.8811,
        "meta_ephemeris_type": 0,
        "meta_classification_type": "U",
        "meta_norad_cat_id": 65729,
        "meta_element_set_no": 999,
        "meta_rev_at_epoch": 1348,
        "meta_bstar": 0.0010954429,
        "meta_mean_motion_dot": 0.00152909,
        "meta_mean_motion_ddot": 0,
        "tle_line1": "1 65729U 98067XH  25348.77233981  .00152909  00000+0  10954-2 0  9997",
        "tle_line2": "2 65729  51.6244 125.3489 0006961 292.1448  67.8811 15.72674024 13482"
      },
      "geometry": {
        "type": "Point",
        "coordinates": [
          86.07892150739515,
          -33.87335260721369
        ]
      }
    }
  ]
}